{
  "links" : {
    "next" : "https://api.nasa.gov/neo/rest/v1/feed?start_date=2010-10-09&end_date=2010-10-09&detailed=true&api_key=t0TVs3DtDT2H8Oy2Zy8m2eVrNsAVKAexjcZXUckd",
    "prev" : "https://api.nasa.gov/neo/rest/v1/feed?start_date=2010-10-07&end_date=2010-10-07&detailed=true&api_key=t0TVs3DtDT2H8Oy2Zy8m2eVrNsAVKAexjcZXUckd",
    "self" : "https://api.nasa.gov/neo/rest/v1/feed?start_date=2010-10-08&end_date=2010-10-08&detailed=true&api_key=t0TVs3DtDT2H8Oy2Zy8m2eVrNsAVKAexjcZXUckd"
  },
  "element_count" : 5,
  "near_earth_objects" : {
    "2010-10-08" : [ {
      "links" : {
        "self" : "https://api.nasa.gov/neo/rest/v1/neo/3548241?api_key=t0TVs3DtDT2H8Oy2Zy8m2eVrNsAVKAexjcZXUckd"
      },
      "neo_reference_id" : "3548241",
      "name" : "(2010 TQ19)",
      "nasa_jpl_url" : "http://ssd.jpl.nasa.gov/sbdb.cgi?sstr=3548241",
      "absolute_magnitude_h" : 25.3,
      "estimated_diameter" : {
        "kilometers" : {
          "estimated_diameter_min" : 0.0231502122,
          "estimated_diameter_max" : 0.0517654482
        },
        "meters" : {
          "estimated_diameter_min" : 23.150212221,
          "estimated_diameter_max" : 51.7654482198
        },
        "miles" : {
          "estimated_diameter_min" : 0.0143848705,
          "estimated_diameter_max" : 0.0321655483
        },
        "feet" : {
          "estimated_diameter_min" : 75.9521422633,
          "estimated_diameter_max" : 169.8341531374
        }
      },
      "is_potentially_hazardous_asteroid" : false,
      "close_approach_data" : [ {
        "close_approach_date" : "2010-10-08",
        "epoch_date_close_approach" : 1286521200000,
        "relative_velocity" : {
          "kilometers_per_second" : "8.8278212816",
          "kilometers_per_hour" : "31780.1566138172",
          "miles_per_hour" : "19746.9534248466"
        },
        "miss_distance" : {
          "astronomical" : "0.0245670633",
          "lunar" : "9.5565881729",
          "kilometers" : "3675180.5",
          "miles" : "2283651.25"
        },
        "orbiting_body" : "Earth"
      } ],
      "orbital_data" : {
        "orbit_id" : "10",
        "orbit_determination_date" : "2017-04-06 08:56:24",
        "orbit_uncertainty" : "7",
        "minimum_orbit_intersection" : ".0235905",
        "jupiter_tisserand_invariant" : "4.614",
        "epoch_osculation" : "2458000.5",
        "eccentricity" : ".2939303550194052",
        "semi_major_axis" : "1.427908095723561",
        "inclination" : "14.38957792798539",
        "ascending_node_longitude" : "12.9810822259407",
        "orbital_period" : "623.2306604168333",
        "perihelion_distance" : "1.008202562212452",
        "perihelion_argument" : "21.143705632156",
        "aphelion_distance" : "1.84761362923467",
        "perihelion_time" : "2457988.589036539883",
        "mean_anomaly" : "6.880192387797671",
        "mean_motion" : ".5776352526674833",
        "equinox" : "J2000"
      }
    }, {
      "links" : {
        "self" : "https://api.nasa.gov/neo/rest/v1/neo/3548663?api_key=t0TVs3DtDT2H8Oy2Zy8m2eVrNsAVKAexjcZXUckd"
      },
      "neo_reference_id" : "3548663",
      "name" : "(2010 TS54)",
      "nasa_jpl_url" : "http://ssd.jpl.nasa.gov/sbdb.cgi?sstr=3548663",
      "absolute_magnitude_h" : 24.5,
      "estimated_diameter" : {
        "kilometers" : {
          "estimated_diameter_min" : 0.0334622374,
          "estimated_diameter_max" : 0.0748238376
        },
        "meters" : {
          "estimated_diameter_min" : 33.4622374455,
          "estimated_diameter_max" : 74.8238376074
        },
        "miles" : {
          "estimated_diameter_min" : 0.0207924639,
          "estimated_diameter_max" : 0.0464933628
        },
        "feet" : {
          "estimated_diameter_min" : 109.7842471007,
          "estimated_diameter_max" : 245.4850393757
        }
      },
      "is_potentially_hazardous_asteroid" : false,
      "close_approach_data" : [ {
        "close_approach_date" : "2010-10-08",
        "epoch_date_close_approach" : 1286521200000,
        "relative_velocity" : {
          "kilometers_per_second" : "8.2236685539",
          "kilometers_per_hour" : "29605.2067939566",
          "miles_per_hour" : "18395.5241881671"
        },
        "miss_distance" : {
          "astronomical" : "0.1296035564",
          "lunar" : "50.4157791138",
          "kilometers" : "19388416",
          "miles" : "12047403"
        },
        "orbiting_body" : "Earth"
      } ],
      "orbital_data" : {
        "orbit_id" : "6",
        "orbit_determination_date" : "2017-04-06 08:56:20",
        "orbit_uncertainty" : "9",
        "minimum_orbit_intersection" : ".128749",
        "jupiter_tisserand_invariant" : "4.557",
        "epoch_osculation" : "2455480.5",
        "eccentricity" : ".2298182303820832",
        "semi_major_axis" : "1.460950421666123",
        "inclination" : "15.28518476584575",
        "ascending_node_longitude" : "13.21984776273299",
        "orbital_period" : "644.9880139176058",
        "perihelion_distance" : "1.125197381082856",
        "perihelion_argument" : "10.57175347370536",
        "aphelion_distance" : "1.796703462249389",
        "perihelion_time" : "2455486.641145752626",
        "mean_anomaly" : "356.5723200691482",
        "mean_motion" : ".5581499070244557",
        "equinox" : "J2000"
      }
    }, {
      "links" : {
        "self" : "https://api.nasa.gov/neo/rest/v1/neo/2002100?api_key=t0TVs3DtDT2H8Oy2Zy8m2eVrNsAVKAexjcZXUckd"
      },
      "neo_reference_id" : "2002100",
      "name" : "2100 Ra-Shalom (1978 RA)",
      "nasa_jpl_url" : "http://ssd.jpl.nasa.gov/sbdb.cgi?sstr=2002100",
      "absolute_magnitude_h" : 16.05,
      "estimated_diameter" : {
        "kilometers" : {
          "estimated_diameter_min" : 1.6389095149,
          "estimated_diameter_max" : 3.6647130844
        },
        "meters" : {
          "estimated_diameter_min" : 1638.9095149478,
          "estimated_diameter_max" : 3664.7130843945
        },
        "miles" : {
          "estimated_diameter_min" : 1.0183708442,
          "estimated_diameter_max" : 2.277146434
        },
        "feet" : {
          "estimated_diameter_min" : 5376.9998930214,
          "estimated_diameter_max" : 12023.337275805
        }
      },
      "is_potentially_hazardous_asteroid" : false,
      "close_approach_data" : [ {
        "close_approach_date" : "2010-10-08",
        "epoch_date_close_approach" : 1286521200000,
        "relative_velocity" : {
          "kilometers_per_second" : "23.3229221591",
          "kilometers_per_hour" : "83962.519772661",
          "miles_per_hour" : "52171.0445776293"
        },
        "miss_distance" : {
          "astronomical" : "0.4005351707",
          "lunar" : "155.8081817627",
          "kilometers" : "59919208",
          "miles" : "37232072"
        },
        "orbiting_body" : "Earth"
      } ],
      "orbital_data" : {
        "orbit_id" : "182",
        "orbit_determination_date" : "2017-04-06 09:30:50",
        "orbit_uncertainty" : "0",
        "minimum_orbit_intersection" : ".149558",
        "jupiter_tisserand_invariant" : "6.946",
        "epoch_osculation" : "2453681.5",
        "eccentricity" : ".4365122239502867",
        "semi_major_axis" : ".832041312581066",
        "inclination" : "15.7559714300814",
        "ascending_node_longitude" : "170.8848664870347",
        "orbital_period" : "277.2143849607028",
        "perihelion_distance" : ".4688451088077891",
        "perihelion_argument" : "355.9827741469682",
        "aphelion_distance" : "1.195237516354343",
        "perihelion_time" : "2453600.981067548835",
        "mean_anomaly" : "104.564615889354",
        "mean_motion" : "1.2986339076561",
        "equinox" : "J2000"
      }
    } ]
  }
}